1 90000           19337.16666667 -.00000157  00000-0 -33909-3 0 00001
2 90000 052.9783 021.7937 0007936 268.8573 113.7954 13.29208478000013
1 90001           19337.16666667 -.00000099  00000-0 -21375-3 0 00001
2 90001 052.9782 021.7937 0007937 268.8634 120.9893 13.29208420000011
1 90002           19337.16666667 -.00000037  00000-0 -78709-4 0 00008
2 90002 052.9782 021.7937 0007937 268.8697 128.1830 13.29208358000012
1 90003           19337.16666667  .00000026  00000-0  55099-4 0 00002
2 90003 052.9782 021.7937 0007937 268.8760 135.3768 13.29208295000014
1 90004           19337.16666667  .00000082  00000-0  17700-3 0 00001
2 90004 052.9782 021.7937 0007936 268.8820 142.5709 13.29208238000013
1 90005           19337.16666667  .00000129  00000-0  27725-3 0 00002
2 90005 052.9782 021.7937 0007936 268.8872 149.7657 13.29208190000019
1 90006           19337.16666667  .00000161  00000-0  34753-3 0 00008
2 90006 052.9782 021.7937 0007935 268.8914 156.9615 13.29208156000012
1 90007           19337.16666667  .00000177  00000-0  38151-3 0 00002
2 90007 052.9782 021.7936 0007934 268.8946 164.1584 13.29208139000013
1 90008           19337.16666667  .00000174  00000-0  37523-3 0 00002
2 90008 052.9782 021.7936 0007934 268.8966 171.3563 13.29208141000016
1 90009           19337.16666667  .00000152  00000-0  32746-3 0 00001
2 90009 052.9782 021.7936 0007933 268.8976 178.5553 13.29208162000018
1 90010           19337.16666667  .00000111  00000-0  23975-3 0 00002
2 90010 052.9782 021.7936 0007932 268.8976 185.7553 13.29208204000016
1 90011           19337.16666667  .00000054  00000-0  11635-3 0 00009
2 90011 052.9782 021.7936 0007932 268.8968 192.9560 13.29208263000011
1 90012           19337.16666667 -.00000017  00000-0 -36076-4 0 00008
2 90012 052.9782 021.7936 0007931 268.8956 200.1572 13.29208337000015
1 90013           19337.16666667 -.00000097  00000-0 -20873-3 0 00004
2 90013 052.9782 021.7936 0007931 268.8942 207.3586 13.29208423000011
1 90014           19337.16666667 -.00000181  00000-0 -39129-3 0 00003
2 90014 052.9783 021.7936 0007930 268.8928 214.5599 13.29208514000011
1 90015           19337.16666667 -.00000266  00000-0 -57253-3 0 00006
2 90015 052.9783 021.7936 0007930 268.8916 221.7610 13.29208606000015
1 90016           19337.16666667 -.00000344  00000-0 -74112-3 0 00007
2 90016 052.9783 021.7936 0007930 268.8907 228.9618 13.29208693000019
1 90017           19337.16666667 -.00000411  00000-0 -88616-3 0 00007
2 90017 052.9783 021.7936 0007929 268.8900 236.1624 13.29208771000016
1 90018           19337.16666667 -.00000463  00000-0 -99779-3 0 00007
2 90018 052.9783 021.7936 0007929 268.8895 243.3629 13.29208833000014
1 90019           19337.16666667 -.00000495  00000-0 -10679-2 0 00004
2 90019 052.9783 021.7936 0007929 268.8890 250.5633 13.29208877000013
1 90020           19337.16666667 -.00000506  00000-0 -10913-2 0 00000
2 90020 052.9783 021.7936 0007928 268.8879 257.7644 13.29208900000019
1 90021           19337.16666667 -.00000494  00000-0 -10654-2 0 00009
2 90021 052.9783 021.7937 0007928 268.8867 264.9656 13.29208900000011
1 90022           19337.16666667 -.00000459  00000-0 -99026-3 0 00002
2 90022 052.9783 021.7937 0007928 268.8850 272.1673 13.29208875000015
1 90023           19337.16666667 -.00000403  00000-0 -86881-3 0 00007
2 90023 052.9783 021.7937 0007927 268.8826 279.3697 13.29208828000011
1 90024           19337.16666667 -.00000328  00000-0 -70685-3 0 00009
2 90024 052.9783 021.7937 0007927 268.8797 286.5726 13.29208761000018
1 90025           19337.16666667 -.00000238  00000-0 -51287-3 0 00007
2 90025 052.9783 021.7937 0007927 268.8764 293.7760 13.29208676000016
1 90026           19337.16666667 -.00000137  00000-0 -29636-3 0 00009
2 90026 052.9782 021.7937 0007926 268.8725 300.9800 13.29208579000010
1 90027           19337.16666667 -.00000032  00000-0 -68847-4 0 00002
2 90027 052.9782 021.7937 0007926 268.8685 308.1841 13.29208474000015
1 90028           19337.16666667  .00000073  00000-0  15732-3 0 00000
2 90028 052.9782 021.7937 0007927 268.8645 315.3881 13.29208368000019
1 90029           19337.16666667  .00000172  00000-0  37007-3 0 00000
2 90029 052.9782 021.7937 0007927 268.8608 322.5919 13.29208266000018
1 90030           19337.16666667  .00000259  00000-0  55830-3 0 00002
2 90030 052.9782 021.7937 0007927 268.8576 329.7952 13.29208172000016
1 90031           19337.16666667  .00000330  00000-0  71242-3 0 00008
2 90031 052.9782 021.7937 0007927 268.8549 336.9980 13.29208093000010
1 90032           19337.16666667  .00000383  00000-0  82473-3 0 00005
2 90032 052.9782 021.7936 0007928 268.8527 344.2002 13.29208031000016
1 90033           19337.16666667  .00000413  00000-0  88996-3 0 00006
2 90033 052.9782 021.7936 0007928 268.8511 351.4018 13.29207990000010
1 90034           19337.16666667  .00000420  00000-0  90559-3 0 00003
2 90034 052.9782 021.7936 0007929 268.8500 358.6030 13.29207971000012
1 90035           19337.16666667  .00000404  00000-0  87207-3 0 00002
2 90035 052.9782 021.7936 0007929 268.8492 005.8037 13.29207975000015
1 90036           19337.16666667  .00000368  00000-0  79272-3 0 00005
2 90036 052.9782 021.7936 0007929 268.8487 013.0043 13.29208000000018
1 90037           19337.16666667  .00000312  00000-0  67357-3 0 00006
2 90037 052.9782 021.7936 0007930 268.8481 020.2049 13.29208045000010
1 90038           19337.16666667  .00000243  00000-0  52292-3 0 00002
2 90038 052.9782 021.7936 0007930 268.8473 027.4056 13.29208105000016
1 90039           19337.16666667  .00000163  00000-0  35078-3 0 00007
2 90039 052.9783 021.7936 0007930 268.8463 034.6066 13.29208176000016
1 90040           19337.16666667  .00000078  00000-0  16818-3 0 00005
2 90040 052.9783 021.7936 0007930 268.8451 041.8078 13.29208253000014
1 90041           19337.16666667 -.00000006  00000-0 -13506-4 0 00001
2 90041 052.9783 021.7936 0007931 268.8437 049.0091 13.29208332000013
1 90042           19337.16666667 -.00000085  00000-0 -18316-3 0 00002
2 90042 052.9783 021.7936 0007931 268.8423 056.2105 13.29208406000017
1 90043           19337.16666667 -.00000153  00000-0 -33058-3 0 00009
2 90043 052.9783 021.7936 0007932 268.8411 063.4116 13.29208471000010
1 90044           19337.16666667 -.00000207  00000-0 -44713-3 0 00000
2 90044 052.9783 021.7936 0007932 268.8404 070.6122 13.29208523000018
1 90045           19337.16666667 -.00000244  00000-0 -52693-3 0 00008
2 90045 052.9783 021.7936 0007933 268.8407 077.8120 13.29208560000011
1 90046           19337.16666667 -.00000263  00000-0 -56607-3 0 00009
2 90046 052.9783 021.7936 0007934 268.8418 085.0108 13.29208579000012
1 90047           19337.16666667 -.00000261  00000-0 -56365-3 0 00009
2 90047 052.9783 021.7937 0007935 268.8440 092.2086 13.29208579000015
1 90048           19337.16666667 -.00000242  00000-0 -52153-3 0 00000
2 90048 052.9783 021.7937 0007935 268.8474 099.4052 13.29208560000015
1 90049           19337.16666667 -.00000206  00000-0 -44421-3 0 00000
2 90049 052.9783 021.7937 0007936 268.8519 106.6008 13.29208526000011
